{"type": "FeatureCollection", "features": [ {"type": "Feature", "properties": {"norad_id": 30648, "name": "FENGYUN 1C DEB", "group": "fengyun-1c-debris", "lat": -41.21286045282286, "lon": -107.15652427281555, "alt_km": 738.9497982965058, "timestamp": "2025-12-11T20:41:15.358591+00:00", "meta": {"OBJECT_NAME": "FENGYUN 1C DEB", "OBJECT_ID": "1999-025APF", "EPOCH": "2025-12-10T05:46:39.708768", "MEAN_MOTION": 14.48054581, "ECCENTRICITY": 0.0034584, "INCLINATION": 98.6411, "RA_OF_ASC_NODE": 78.8404, "ARG_OF_PERICENTER": 135.1437, "MEAN_ANOMALY": 279.3828, "EPHEMERIS_TYPE": 0, "CLASSIFICATION_TYPE": "U", "NORAD_CAT_ID": 30648, "ELEMENT_SET_NO": 999, "REV_AT_EPOCH": 97830, "BSTAR": 0.0034791, "MEAN_MOTION_DOT": 0.00013008, "MEAN_MOTION_DDOT": 0}, "tle": {"line1": "1 30648U 99025APF 25344.24073737  .00013008  00000+0  34791-2 0  9994", "line2": "2 30648  98.6411  78.8404 0034584 135.1437 279.3828 14.48054581978307"}}, "geometry": {"type": "Point", "coordinates": [-107.15652427281555, -41.21286045282286]}}, {"type": "Feature", "properties": {"norad_id": 30649, "name": "FENGYUN 1C DEB", "group": "fengyun-1c-debris", "lat": 68.31507406883239, "lon": 58.20940602936345, "alt_km": 795.1351570831639, "timestamp": "2025-12-11T20:41:15.358601+00:00", "meta": {"OBJECT_NAME": "FENGYUN 1C DEB", "OBJECT_ID": "1999-025APG", "EPOCH": "2025-12-11T05:29:41.922816", "MEAN_MOTION": 14.2950496, "ECCENTRICITY": 0.00513841, "INCLINATION": 98.8086, "RA_OF_ASC_NODE": 80.521, "ARG_OF_PERICENTER": 175.5403, "MEAN_ANOMALY": 239.3231, "EPHEMERIS_TYPE": 0, "CLASSIFICATION_TYPE": "U", "NORAD_CAT_ID": 30649, "ELEMENT_SET_NO": 999, "REV_AT_EPOCH": 97042, "BSTAR": 0.002998262, "MEAN_MOTION_DOT": 7.733e-05, "MEAN_MOTION_DDOT": 0}, "tle": {"line1": "1 30649U 99025APG 25345.22895744  .00007733  00000+0  29983-2 0  9999", "line2": "2 30649  98.8086  80.5210 0051384 175.5403 239.3231 14.29504960970420"}}, "geometry": {"type": "Point", "coordinates": [58.20940602936345, 68.31507406883239]}}, {"type": "Feature", "properties": {"norad_id": 30650, "name": "FENGYUN 1C DEB", "group": "fengyun-1c-debris", "lat": 61.508592361107006, "lon": -136.1932945794968, "alt_km": 826.0631734106883, "timestamp": "2025-12-11T20:41:15.358610+00:00", "meta": {"OBJECT_NAME": "FENGYUN 1C DEB", "OBJECT_ID": "1999-025APH", "EPOCH": "2025-12-11T01:35:31.801920", "MEAN_MOTION": 14.13918858, "ECCENTRICITY": 0.00721816, "INCLINATION": 99.2043, "RA_OF_ASC_NODE": 25.6059, "ARG_OF_PERICENTER": 194.2407, "MEAN_ANOMALY": 195.9056, "EPHEMERIS_TYPE": 0, "CLASSIFICATION_TYPE": "U", "NORAD_CAT_ID": 30650, "ELEMENT_SET_NO": 999, "REV_AT_EPOCH": 96275, "BSTAR": 0.0022163733, "MEAN_MOTION_DOT": 4.265e-05, "MEAN_MOTION_DDOT": 0}, "tle": {"line1": "1 30650U 99025APH 25345.06634030  .00004265  00000+0  22164-2 0  9993", "line2": "2 30650  99.2043  25.6059 0072181 194.2407 195.9056 14.13918858962758"}}, "geometry": {"type": "Point", "coordinates": [-136.1932945794968, 61.508592361107006]}}, {"type": "Feature", "properties": {"norad_id": 30652, "name": "FENGYUN 1C DEB", "group": "fengyun-1c-debris", "lat": -19.46615753614138, "lon": -164.11456082226078, "alt_km": 869.9986792784157, "timestamp": "2025-12-11T20:41:15.358620+00:00", "meta": {"OBJECT_NAME": "FENGYUN 1C DEB", "OBJECT_ID": "1999-025APJ", "EPOCH": "2025-12-11T13:38:48.748128", "MEAN_MOTION": 14.07804046, "ECCENTRICITY": 0.00073085, "INCLINATION": 98.7854, "RA_OF_ASC_NODE": 18.7334, "ARG_OF_PERICENTER": 268.8684, "MEAN_ANOMALY": 244.8347, "EPHEMERIS_TYPE": 0, "CLASSIFICATION_TYPE": "U", "NORAD_CAT_ID": 30652, "ELEMENT_SET_NO": 999, "REV_AT_EPOCH": 96677, "BSTAR": 0.00018643591, "MEAN_MOTION_DOT": 2.73e-06, "MEAN_MOTION_DDOT": 0}, "tle": {"line1": "1 30652U 99025APJ 25345.56861977  .00000273  00000+0  18644-3 0  9996", "line2": "2 30652  98.7854  18.7334 0007308 268.8684 244.8347 14.07804046966776"}}, "geometry": {"type": "Point", "coordinates": [-164.11456082226078, -19.46615753614138]}}, {"type": "Feature", "properties": {"norad_id": 30654, "name": "FENGYUN 1C DEB", "group": "fengyun-1c-debris", "lat": 2.883306612292135, "lon": 89.53713688369247, "alt_km": 832.2784769907939, "timestamp": "2025-12-11T20:41:15.358630+00:00", "meta": {"OBJECT_NAME": "FENGYUN 1C DEB", "OBJECT_ID": "1999-025APL", "EPOCH": "2025-12-11T07:59:49.460640", "MEAN_MOTION": 14.17089874, "ECCENTRICITY": 0.00351595, "INCLINATION": 99.2404, "RA_OF_ASC_NODE": 268.5182, "ARG_OF_PERICENTER": 100.6137, "MEAN_ANOMALY": 259.8999, "EPHEMERIS_TYPE": 0, "CLASSIFICATION_TYPE": "U", "NORAD_CAT_ID": 30654, "ELEMENT_SET_NO": 999, "REV_AT_EPOCH": 96660, "BSTAR": 0.0018387281, "MEAN_MOTION_DOT": 3.678e-05, "MEAN_MOTION_DDOT": 0}, "tle": {"line1": "1 30654U 99025APL 25345.33321135  .00003678  00000+0  18387-2 0  9995", "line2": "2 30654  99.2404 268.5182 0035159 100.6137 259.8999 14.17089874966608"}}, "geometry": {"type": "Point", "coordinates": [89.53713688369247, 2.883306612292135]}}, {"type": "Feature", "properties": {"norad_id": 30656, "name": "FENGYUN 1C DEB", "group": "fengyun-1c-debris", "lat": -56.007561132555296, "lon": -33.71826111038939, "alt_km": 766.2763805397972, "timestamp": "2025-12-11T20:41:15.358640+00:00", "meta": {"OBJECT_NAME": "FENGYUN 1C DEB", "OBJECT_ID": "1999-025APN", "EPOCH": "2025-12-11T09:37:39.599328", "MEAN_MOTION": 14.45291004, "ECCENTRICITY": 0.00302772, "INCLINATION": 99.0187, "RA_OF_ASC_NODE": 159.4155, "ARG_OF_PERICENTER": 90.4916, "MEAN_ANOMALY": 269.9743, "EPHEMERIS_TYPE": 0, "CLASSIFICATION_TYPE": "U", "NORAD_CAT_ID": 30656, "ELEMENT_SET_NO": 999, "REV_AT_EPOCH": 97066, "BSTAR": 0.0052394277, "MEAN_MOTION_DOT": 0.00018496, "MEAN_MOTION_DDOT": 0}, "tle": {"line1": "1 30656U 99025APN 25345.40115277  .00018496  00000+0  52394-2 0  9993", "line2": "2 30656  99.0187 159.4155 0030277  90.4916 269.9743 14.45291004970662"}}, "geometry": {"type": "Point", "coordinates": [-33.71826111038939, -56.007561132555296]}}, {"type": "Feature", "properties": {"norad_id": 30657, "name": "FENGYUN 1C DEB", "group": "fengyun-1c-debris", "lat": 14.434516936068905, "lon": 81.57163217740724, "alt_km": 753.9633864423577, "timestamp": "2025-12-11T20:41:15.358650+00:00", "meta": {"OBJECT_NAME": "FENGYUN 1C DEB", "OBJECT_ID": "1999-025APP", "EPOCH": "2025-12-11T05:43:55.407072", "MEAN_MOTION": 14.38564737, "ECCENTRICITY": 0.00158241, "INCLINATION": 98.8352, "RA_OF_ASC_NODE": 83.225, "ARG_OF_PERICENTER": 350.0679, "MEAN_ANOMALY": 39.2267, "EPHEMERIS_TYPE": 0, "CLASSIFICATION_TYPE": "U", "NORAD_CAT_ID": 30657, "ELEMENT_SET_NO": 999, "REV_AT_EPOCH": 97211, "BSTAR": 0.0033590113, "MEAN_MOTION_DOT": 0.00010259, "MEAN_MOTION_DDOT": 0}, "tle": {"line1": "1 30657U 99025APP 25345.23883573  .00010259  00000+0  33590-2 0  9992", "line2": "2 30657  98.8352  83.2250 0015824 350.0679  39.2267 14.38564737972115"}}, "geometry": {"type": "Point", "coordinates": [81.57163217740724, 14.434516936068905]}}, {"type": "Feature", "properties": {"norad_id": 30658, "name": "FENGYUN 1C DEB", "group": "fengyun-1c-debris", "lat": 55.38431822465649, "lon": 5.965829517663437, "alt_km": 1066.7754483023218, "timestamp": "2025-12-11T20:41:15.358660+00:00", "meta": {"OBJECT_NAME": "FENGYUN 1C DEB", "OBJECT_ID": "1999-025APQ", "EPOCH": "2025-12-10T13:14:54.674016", "MEAN_MOTION": 13.87185477, "ECCENTRICITY": 0.0183797, "INCLINATION": 98.4379, "RA_OF_ASC_NODE": 17.2002, "ARG_OF_PERICENTER": 233.513, "MEAN_ANOMALY": 124.8975, "EPHEMERIS_TYPE": 0, "CLASSIFICATION_TYPE": "U", "NORAD_CAT_ID": 30658, "ELEMENT_SET_NO": 999, "REV_AT_EPOCH": 94654, "BSTAR": 0.0024901, "MEAN_MOTION_DOT": 3.303e-05, "MEAN_MOTION_DDOT": 0}, "tle": {"line1": "1 30658U 99025APQ 25344.55202169  .00003303  00000+0  24901-2 0  9991", "line2": "2 30658  98.4379  17.2002 0183797 233.5130 124.8975 13.87185477946543"}}, "geometry": {"type": "Point", "coordinates": [5.965829517663437, 55.38431822465649]}}, {"type": "Feature", "properties": {"norad_id": 30660, "name": "FENGYUN 1C DEB", "group": "fengyun-1c-debris", "lat": -13.906362836505771, "lon": -99.7334395136884, "alt_km": 686.9249325522005, "timestamp": "2025-12-11T20:41:15.358670+00:00", "meta": {"OBJECT_NAME": "FENGYUN 1C DEB", "OBJECT_ID": "1999-025APS", "EPOCH": "2025-12-11T05:32:24.416160", "MEAN_MOTION": 14.87507411, "ECCENTRICITY": 0.01372519, "INCLINATION": 98.1385, "RA_OF_ASC_NODE": 81.6498, "ARG_OF_PERICENTER": 339.498, "MEAN_ANOMALY": 77.6219, "EPHEMERIS_TYPE": 0, "CLASSIFICATION_TYPE": "U", "NORAD_CAT_ID": 30660, "ELEMENT_SET_NO": 999, "REV_AT_EPOCH": 762, "BSTAR": 0.00093404858, "MEAN_MOTION_DOT": 0.00010019, "MEAN_MOTION_DDOT": 0}, "tle": {"line1": "1 30660U 99025APS 25345.23083815  .00010019  00000+0  93405-3 0  9993", "line2": "2 30660  98.1385  81.6498 0137251 339.4980  77.6219 14.87507411  7627"}}, "geometry": {"type": "Point", "coordinates": [-99.7334395136884, -13.906362836505771]}}, {"type": "Feature", "properties": {"norad_id": 30661, "name": "FENGYUN 1C DEB", "group": "fengyun-1c-debris", "lat": 79.07340287874857, "lon": 41.4913129233744, "alt_km": 742.6501388120296, "timestamp": "2025-12-11T20:41:15.358680+00:00", "meta": {"OBJECT_NAME": "FENGYUN 1C DEB", "OBJECT_ID": "1999-025APT", "EPOCH": "2025-12-11T10:06:48.641184", "MEAN_MOTION": 14.21141108, "ECCENTRICITY": 0.0144765, "INCLINATION": 99.487, "RA_OF_ASC_NODE": 161.0012, "ARG_OF_PERICENTER": 49.3224, "MEAN_ANOMALY": 312.0428, "EPHEMERIS_TYPE": 0, "CLASSIFICATION_TYPE": "U", "NORAD_CAT_ID": 30661, "ELEMENT_SET_NO": 999, "REV_AT_EPOCH": 97883, "BSTAR": 0.00018506002, "MEAN_MOTION_DOT": 3.97e-06, "MEAN_MOTION_DDOT": 0}, "tle": {"line1": "1 30661U 99025APT 25345.42139631  .00000397  00000+0  18506-3 0  9990", "line2": "2 30661  99.4870 161.0012 0144765  49.3224 312.0428 14.21141108978835"}}, "geometry": {"type": "Point", "coordinates": [41.4913129233744, 79.07340287874857]}}]}